[{"OBJECT_NAME":"LAPAN-A3","OBJECT_ID":"2016-040E","EPOCH":"2026-03-09T23:01:57.724896","MEAN_MOTION":15.3238951,"ECCENTRICITY":0.00109839,"INCLINATION":97.1488,"RA_OF_ASC_NODE":68.4254,"ARG_OF_PERICENTER":22.062,"MEAN_ANOMALY":338.1093,"EPHEMERIS_TYPE":0,"CLASSIFICATION_TYPE":"U","NORAD_CAT_ID":41603,"ELEMENT_SET_NO":999,"REV_AT_EPOCH":53961,"BSTAR":0.00017567445,"MEAN_MOTION_DOT":5.428e-5,"MEAN_MOTION_DDOT":0},{"OBJECT_NAME":"STARLINK-34446","OBJECT_ID":"2025-198D","EPOCH":"2026-03-09T22:10:48.791712","MEAN_MOTION":15.30184011,"ECCENTRICITY":0.00011231,"INCLINATION":53.158,"RA_OF_ASC_NODE":270.0765,"ARG_OF_PERICENTER":189.3173,"MEAN_ANOMALY":170.7807,"EPHEMERIS_TYPE":0,"CLASSIFICATION_TYPE":"U","NORAD_CAT_ID":65495,"ELEMENT_SET_NO":999,"REV_AT_EPOCH":2865,"BSTAR":0.0010239839,"MEAN_MOTION_DOT":0.00030076,"MEAN_MOTION_DDOT":0}]
